CCSDS_OMM_VERS,COMMENT,CREATION_DATE,ORIGINATOR,OBJECT_NAME,OBJECT_ID,CENTER_NAME,REF_FRAME,TIME_SYSTEM,MEAN_ELEMENT_THEORY,EPOCH,MEAN_MOTION,ECCENTRICITY,INCLINATION,RA_OF_ASC_NODE,ARG_OF_PERICENTER,MEAN_ANOMALY,EPHEMERIS_TYPE,CLASSIFICATION_TYPE,NORAD_CAT_ID,ELEMENT_SET_NO,REV_AT_EPOCH,BSTAR,MEAN_MOTION_DOT,MEAN_MOTION_DDOT,SEMIMAJOR_AXIS,PERIOD,APOAPSIS,PERIAPSIS,OBJECT_TYPE,RCS_SIZE,COUNTRY_CODE,LAUNCH_DATE,SITE,DECAY_DATE,FILE,GP_ID,TLE_LINE0,TLE_LINE1,TLE_LINE2
"2.0","GENERATED VIA SPACE-TRACK.ORG API","2020-08-26T21:10:42","18 SPCS","IRIDIUM 136","2017-061H","EARTH","TEME","UTC","SGP4","2020-08-26T10:19:22.932192","14.34216291","0.00023100","86.4023","191.4733","94.9917","265.1542","0","U","42962","999","15086","0.00001911800000","0.00000073","0.0000000000000","7155.809","100.403","779.326","776.021","PAYLOAD","LARGE","US","2017-10-09","AFWTR","","2809045","160183565","0 IRIDIUM 136","1 42962U 17061H   20239.43012653 +.00000073 +00000-0 +19118-4 0  9992","2 42962 086.4023 191.4733 0002310 094.9917 265.1542 14.34216291150869"
"2.0","GENERATED VIA SPACE-TRACK.ORG API","2020-08-26T06:26:10","18 SPCS","IRIDIUM 136","2017-061H","EARTH","TEME","UTC","SGP4","2020-08-26T03:37:30.910944","14.34216215","0.00023060","86.4022","191.5897","94.9883","265.1576","0","U","42962","999","15082","0.00001718400000","0.00000068","0.0000000000000","7155.809","100.403","779.324","776.024","PAYLOAD","LARGE","US","2017-10-09","AFWTR","","2808657","160157078","0 IRIDIUM 136","1 42962U 17061H   20239.15105221  .00000068  00000-0  17184-4 0  9990","2 42962  86.4022 191.5897 0002306  94.9883 265.1576 14.34216215150826"
"2.0","GENERATED VIA SPACE-TRACK.ORG API","2020-08-26T06:26:10","18 SPCS","COSMOS 1818","1987-011A","EARTH","TEME","UTC","SGP4","2020-08-26T01:41:47.152032","14.31457985","0.00138970","65.0107","68.5101","282.4570","77.4959","0","U","17369","999","80550","-0.00000298540000","-0.00000108","0.0000000000000","7164.998","100.596","796.820","776.906","PAYLOAD","LARGE","CIS","1987-02-01","TTMTR","","2808642","160156327","0 COSMOS 1818","1 17369U 87011A   20239.07068463 -.00000108  00000-0 -29854-5 0  9997","2 17369  65.0107  68.5101 0013897 282.4570  77.4959 14.31457985805500"
"2.0","GENERATED VIA SPACE-TRACK.ORG API","2020-08-26T03:38:10","18 SPCS","COSMOS 1818","1987-011A","EARTH","TEME","UTC","SGP4","2020-08-25T22:20:34.699488","14.31457955","0.00138950","65.0107","68.9014","282.4373","77.5156","0","U","17369","999","80520","-0.00000347770000","-0.00000110","0.0000000000000","7164.998","100.596","796.819","776.907","PAYLOAD","LARGE","CIS","1987-02-01","TTMTR","","2808553","160140157","0 COSMOS 1818","1 17369U 87011A   20238.93095717 -.00000110 +00000-0 -34777-5 0  9996","2 17369 065.0107 068.9014 0013895 282.4373 077.5156 14.31457955805200"
"2.0","GENERATED VIA SPACE-TRACK.ORG API","2020-08-26T03:38:10","18 SPCS","IRIDIUM 136","2017-061H","EARTH","TEME","UTC","SGP4","2020-08-25T20:55:38.884512","14.34216218","0.00023030","86.4021","191.7061","95.1294","265.0165","0","U","42962","999","15078","0.00001798400000","0.00000070","0.0000000000000","7155.809","100.403","779.322","776.026","PAYLOAD","LARGE","US","2017-10-09","AFWTR","","2808553","160151875","0 IRIDIUM 136","1 42962U 17061H   20238.87197783 +.00000070 +00000-0 +17984-4 0  9993","2 42962 086.4021 191.7061 0002303 095.1294 265.0165 14.34216218150787"
"2.0","GENERATED VIA SPACE-TRACK.ORG API","2020-08-25T17:47:59","18 SPCS","COSMOS 1818","1987-011A","EARTH","TEME","UTC","SGP4","2020-08-25T13:57:33.574176","14.31457869","0.00138570","65.0091","69.8807","281.9224","78.0307","0","U","17369","999","80515","-0.00000026341000","-0.00000101","0.0000000000000","7164.998","100.596","796.792","776.935","PAYLOAD","LARGE","CIS","1987-02-01","TTMTR","","2808324","160117475","0 COSMOS 1818","1 17369U 87011A   20238.58163859 -.00000101 +00000-0 -26341-6 0  9999","2 17369 065.0091 069.8807 0013857 281.9224 078.0307 14.31457869805151"
"2.0","GENERATED VIA SPACE-TRACK.ORG API","2020-08-25T17:47:59","18 SPCS","IRIDIUM 136","2017-061H","EARTH","TEME","UTC","SGP4","2020-08-25T09:12:22.833504","14.34216235","0.00022880","86.4020","191.9099","95.2837","264.8620","0","U","42962","999","15071","0.00002299400000","0.00000084","0.0000000000000","7155.809","100.403","779.311","776.036","PAYLOAD","LARGE","US","2017-10-09","AFWTR","","2808324","160127703","0 IRIDIUM 136","1 42962U 17061H   20238.38359761 +.00000084 +00000-0 +22994-4 0  9997","2 42962 086.4020 191.9099 0002288 095.2837 264.8620 14.34216235150710"
"2.0","GENERATED VIA SPACE-TRACK.ORG API","2020-08-25T06:36:10","18 SPCS","COSMOS 1818","1987-011A","EARTH","TEME","UTC","SGP4","2020-08-25T00:32:43.744128","14.31457945","0.00138660","65.0106","71.4449","282.3187","77.6345","0","U","17369","999","80535","-0.00000111160000","-0.00000103","0.0000000000000","7164.998","100.596","796.798","776.928","PAYLOAD","LARGE","CIS","1987-02-01","TTMTR","","2808012","160104295","0 COSMOS 1818","1 17369U 87011A   20238.02272852 -.00000103  00000-0 -11116-5 0  9997","2 17369  65.0106  71.4449 0013866 282.3187  77.6345 14.31457945805356"
"2.0","GENERATED VIA SPACE-TRACK.ORG API","2020-08-25T05:18:38","18 SPCS","IRIDIUM 136","2017-061H","EARTH","TEME","UTC","SGP4","2020-08-24T21:29:06.787680","14.34216170","0.00022850","86.4019","192.1137","95.3487","264.7970","0","U","42962","999","15064","0.00002158000000","0.00000080","0.0000000000000","7155.809","100.403","779.309","776.039","PAYLOAD","LARGE","US","2017-10-09","AFWTR","","2807960","160079056","0 IRIDIUM 136","1 42962U 17061H   20237.89521745 +.00000080 +00000-0 +21580-4 0  9991","2 42962 086.4019 192.1137 0002285 095.3487 264.7970 14.34216170150640"
"2.0","GENERATED VIA SPACE-TRACK.ORG API","2020-08-25T05:18:38","18 SPCS","COSMOS 1818","1987-011A","EARTH","TEME","UTC","SGP4","2020-08-24T21:11:31.288128","14.31457950","0.00138610","65.0107","71.8362","282.2813","77.6719","0","U","17369","999","80505","-0.00000051650000","-0.00000102","0.0000000000000","7164.998","100.596","796.795","776.932","PAYLOAD","LARGE","CIS","1987-02-01","TTMTR","","2807960","160067367","0 COSMOS 1818","1 17369U 87011A   20237.88300102 -.00000102 +00000-0 -51650-6 0  9997","2 17369 065.0107 071.8362 0013861 282.2813 077.6719 14.31457950805053"
"2.0","GENERATED VIA SPACE-TRACK.ORG API","2020-08-24T19:45:39","18 SPCS","IRIDIUM 136","2017-061H","EARTH","TEME","UTC","SGP4","2020-08-24T09:45:50.735808","14.34216201","0.00022680","86.4019","192.3174","95.2505","264.8950","0","U","42962","999","15057","0.00002891200000","0.00000101","0.0000000000000","7155.809","100.403","779.297","776.051","PAYLOAD","LARGE","US","2017-10-09","AFWTR","","2807777","160034956","0 IRIDIUM 136","1 42962U 17061H   20237.40683722 +.00000101 +00000-0 +28912-4 0  9992","2 42962 086.4019 192.3174 0002268 095.2505 264.8950 14.34216201150570"
"2.0","GENERATED VIA SPACE-TRACK.ORG API","2020-08-24T19:45:39","18 SPCS","COSMOS 1818","1987-011A","EARTH","TEME","UTC","SGP4","2020-08-24T06:06:05.246496","14.31457847","0.00138280","65.0092","73.5980","281.7811","78.1722","0","U","17369","999","80496","-0.00000062284000","-0.00000102","0.0000000000000","7164.998","100.596","796.771","776.956","PAYLOAD","LARGE","CIS","1987-02-01","TTMTR","","2807777","160020727","0 COSMOS 1818","1 17369U 87011A   20237.25422739 -.00000102 +00000-0 -62284-6 0  9994","2 17369 065.0092 073.5980 0013828 281.7811 078.1722 14.31457847804960"
"2.0","GENERATED VIA SPACE-TRACK.ORG API","2020-08-24T06:36:10","18 SPCS","COSMOS 1818","1987-011A","EARTH","TEME","UTC","SGP4","2020-08-23T23:23:40.336224","14.31457836","0.00138210","65.0092","74.3806","281.7747","78.1787","0","U","17369","999","80520","-0.00000066029000","-0.00000102","0.0000000000000","7164.999","100.596","796.766","776.961","PAYLOAD","LARGE","CIS","1987-02-01","TTMTR","","2807454","160010138","0 COSMOS 1818","1 17369U 87011A   20236.97477241 -.00000102  00000-0 -66029-6 0  9991","2 17369  65.0092  74.3806 0013821 281.7747  78.1787 14.31457836805204"
"2.0","GENERATED VIA SPACE-TRACK.ORG API","2020-08-24T06:36:10","18 SPCS","IRIDIUM 136","2017-061H","EARTH","TEME","UTC","SGP4","2020-08-23T22:02:34.691712","14.34216014","0.00022630","86.4019","192.5212","95.3223","264.8231","0","U","42962","999","15050","0.00001606700000","0.00000065","0.0000000000000","7155.809","100.403","779.294","776.055","PAYLOAD","LARGE","US","2017-10-09","AFWTR","","2807461","160010757","0 IRIDIUM 136","1 42962U 17061H   20236.91845708  .00000065  00000-0  16067-4 0  9998","2 42962  86.4019 192.5212 0002263  95.3223 264.8231 14.34216014150505"
"2.0","GENERATED VIA SPACE-TRACK.ORG API","2020-08-24T01:08:22","18 SPCS","COSMOS 1818","1987-011A","EARTH","TEME","UTC","SGP4","2020-08-23T21:43:04.111680","14.31457816","0.00138200","65.0092","74.5763","281.7825","78.1709","0","U","17369","999","80491","-0.00000132810000","-0.00000104","0.0000000000000","7164.999","100.596","796.766","776.962","PAYLOAD","LARGE","CIS","1987-02-01","TTMTR","","2807374","159994114","0 COSMOS 1818","1 17369U 87011A   20236.90490870 -.00000104 +00000-0 -13281-5 0  9990","2 17369 065.0092 074.5763 0013820 281.7825 078.1709 14.31457816804913"
"2.0","GENERATED VIA SPACE-TRACK.ORG API","2020-08-24T01:08:22","18 SPCS","IRIDIUM 136","2017-061H","EARTH","TEME","UTC","SGP4","2020-08-23T20:22:06.682944","14.34216050","0.00022590","86.4019","192.5503","95.2788","264.8666","0","U","42962","999","15049","0.00002071500000","0.00000078","0.0000000000000","7155.809","100.403","779.291","776.058","PAYLOAD","LARGE","US","2017-10-09","AFWTR","","2807374","160006632","0 IRIDIUM 136","1 42962U 17061H   20236.84868846 +.00000078 +00000-0 +20715-4 0  9997","2 42962 086.4019 192.5503 0002259 095.2788 264.8666 14.34216050150498"
